{"type": "FeatureCollection", "features": [ {"type": "Feature", "properties": {"norad_id": 30741, "name": "FENGYUN 1C DEB", "group": "fengyun-1c-debris", "lat": 44.572993109927545, "lon": -16.078565715371074, "alt_km": 843.6404981010719, "timestamp": "2025-12-09T04:51:47.771661+00:00", "meta": {"OBJECT_NAME": "FENGYUN 1C DEB", "OBJECT_ID": "1999-025ATB", "EPOCH": "2025-12-08T13:58:06.756096", "MEAN_MOTION": 14.13231053, "ECCENTRICITY": 0.0006938, "INCLINATION": 98.6797, "RA_OF_ASC_NODE": 351.9752, "ARG_OF_PERICENTER": 127.3454, "MEAN_ANOMALY": 2.3563, "EPHEMERIS_TYPE": 0, "CLASSIFICATION_TYPE": "U", "NORAD_CAT_ID": 30741, "ELEMENT_SET_NO": 999, "REV_AT_EPOCH": 96760, "BSTAR": 0.00026963, "MEAN_MOTION_DOT": 4.62e-06, "MEAN_MOTION_DDOT": 0}, "tle": {"line1": "1 30741U 99025ATB 25342.58202264  .00000462  00000+0  26963-3 0  9995", "line2": "2 30741  98.6797 351.9752 0006938 127.3454   2.3563 14.13231053967607"}}, "geometry": {"type": "Point", "coordinates": [-16.078565715371074, 44.572993109927545]}}, {"type": "Feature", "properties": {"norad_id": 30742, "name": "FENGYUN 1C DEB", "group": "fengyun-1c-debris", "lat": 76.75127595179531, "lon": -13.852516945339204, "alt_km": 897.9243636302672, "timestamp": "2025-12-09T04:51:47.771671+00:00", "meta": {"OBJECT_NAME": "FENGYUN 1C DEB", "OBJECT_ID": "1999-025ATC", "EPOCH": "2025-12-08T15:37:28.421760", "MEAN_MOTION": 14.10338369, "ECCENTRICITY": 0.0070881, "INCLINATION": 98.8679, "RA_OF_ASC_NODE": 27.1392, "ARG_OF_PERICENTER": 238.2133, "MEAN_ANOMALY": 283.1447, "EPHEMERIS_TYPE": 0, "CLASSIFICATION_TYPE": "U", "NORAD_CAT_ID": 30742, "ELEMENT_SET_NO": 999, "REV_AT_EPOCH": 95984, "BSTAR": 0.0025567, "MEAN_MOTION_DOT": 4.604e-05, "MEAN_MOTION_DDOT": 0}, "tle": {"line1": "1 30742U 99025ATC 25342.65102340  .00004604  00000+0  25567-2 0  9998", "line2": "2 30742  98.8679  27.1392 0070881 238.2133 283.1447 14.10338369959847"}}, "geometry": {"type": "Point", "coordinates": [-13.852516945339204, 76.75127595179531]}}, {"type": "Feature", "properties": {"norad_id": 30744, "name": "FENGYUN 1C DEB", "group": "fengyun-1c-debris", "lat": -72.87028584965779, "lon": 158.8599631184697, "alt_km": 601.2634412384232, "timestamp": "2025-12-09T04:51:47.771681+00:00", "meta": {"OBJECT_NAME": "FENGYUN 1C DEB", "OBJECT_ID": "1999-025ATE", "EPOCH": "2025-12-08T08:30:38.171808", "MEAN_MOTION": 14.88893123, "ECCENTRICITY": 0.00102378, "INCLINATION": 98.7314, "RA_OF_ASC_NODE": 128.0152, "ARG_OF_PERICENTER": 284.2867, "MEAN_ANOMALY": 137.6832, "EPHEMERIS_TYPE": 0, "CLASSIFICATION_TYPE": "U", "NORAD_CAT_ID": 30744, "ELEMENT_SET_NO": 999, "REV_AT_EPOCH": 98023, "BSTAR": 0.0055105524, "MEAN_MOTION_DOT": 0.00052059, "MEAN_MOTION_DDOT": 0}, "tle": {"line1": "1 30744U 99025ATE 25342.35460847  .00052059  00000+0  55106-2 0  9995", "line2": "2 30744  98.7314 128.0152 0010237 284.2867 137.6832 14.88893123980230"}}, "geometry": {"type": "Point", "coordinates": [158.8599631184697, -72.87028584965779]}}, {"type": "Feature", "properties": {"norad_id": 30746, "name": "FENGYUN 1C DEB", "group": "fengyun-1c-debris", "lat": -17.371370753301175, "lon": -19.192853828046434, "alt_km": 826.704773303346, "timestamp": "2025-12-09T04:51:47.771691+00:00", "meta": {"OBJECT_NAME": "FENGYUN 1C DEB", "OBJECT_ID": "1999-025ATG", "EPOCH": "2025-12-08T18:25:02.539200", "MEAN_MOTION": 14.2750292, "ECCENTRICITY": 0.0046284, "INCLINATION": 99.0575, "RA_OF_ASC_NODE": 163.2167, "ARG_OF_PERICENTER": 329.8146, "MEAN_ANOMALY": 152.5907, "EPHEMERIS_TYPE": 0, "CLASSIFICATION_TYPE": "U", "NORAD_CAT_ID": 30746, "ELEMENT_SET_NO": 999, "REV_AT_EPOCH": 97389, "BSTAR": 0.00083753, "MEAN_MOTION_DOT": 2.034e-05, "MEAN_MOTION_DDOT": 0}, "tle": {"line1": "1 30746U 99025ATG 25342.76739050  .00002034  00000+0  83753-3 0  9995", "line2": "2 30746  99.0575 163.2167 0046284 329.8146 152.5907 14.27502920973897"}}, "geometry": {"type": "Point", "coordinates": [-19.192853828046434, -17.371370753301175]}}, {"type": "Feature", "properties": {"norad_id": 30749, "name": "FENGYUN 1C DEB", "group": "fengyun-1c-debris", "lat": -6.66889382769357, "lon": -170.93857663869363, "alt_km": 875.3335792852968, "timestamp": "2025-12-09T04:51:47.771701+00:00", "meta": {"OBJECT_NAME": "FENGYUN 1C DEB", "OBJECT_ID": "1999-025ATK", "EPOCH": "2025-12-08T19:23:31.829856", "MEAN_MOTION": 13.99835585, "ECCENTRICITY": 0.005512, "INCLINATION": 98.8878, "RA_OF_ASC_NODE": 9.7265, "ARG_OF_PERICENTER": 243.4347, "MEAN_ANOMALY": 116.1162, "EPHEMERIS_TYPE": 0, "CLASSIFICATION_TYPE": "U", "NORAD_CAT_ID": 30749, "ELEMENT_SET_NO": 999, "REV_AT_EPOCH": 95911, "BSTAR": 0.0002257, "MEAN_MOTION_DOT": 2.92e-06, "MEAN_MOTION_DDOT": 0}, "tle": {"line1": "1 30749U 99025ATK 25342.80800729  .00000292  00000+0  22570-3 0  9999", "line2": "2 30749  98.8878   9.7265 0055120 243.4347 116.1162 13.99835585959111"}}, "geometry": {"type": "Point", "coordinates": [-170.93857663869363, -6.66889382769357]}}, {"type": "Feature", "properties": {"norad_id": 30750, "name": "FENGYUN 1C DEB", "group": "fengyun-1c-debris", "lat": 81.04084191559511, "lon": -27.396413879668813, "alt_km": 761.6437247037857, "timestamp": "2025-12-09T04:51:47.771711+00:00", "meta": {"OBJECT_NAME": "FENGYUN 1C DEB", "OBJECT_ID": "1999-025ATL", "EPOCH": "2025-12-08T03:22:00.046848", "MEAN_MOTION": 14.2854195, "ECCENTRICITY": 0.00409616, "INCLINATION": 98.9209, "RA_OF_ASC_NODE": 56.5871, "ARG_OF_PERICENTER": 113.2819, "MEAN_ANOMALY": 275.7367, "EPHEMERIS_TYPE": 0, "CLASSIFICATION_TYPE": "U", "NORAD_CAT_ID": 30750, "ELEMENT_SET_NO": 999, "REV_AT_EPOCH": 96716, "BSTAR": 0.0024120987, "MEAN_MOTION_DOT": 6.061e-05, "MEAN_MOTION_DDOT": 0}, "tle": {"line1": "1 30750U 99025ATL 25342.14027832  .00006061  00000+0  24121-2 0  9997", "line2": "2 30750  98.9209  56.5871 0040961 113.2819 275.7367 14.28541950967166"}}, "geometry": {"type": "Point", "coordinates": [-27.396413879668813, 81.04084191559511]}}, {"type": "Feature", "properties": {"norad_id": 30751, "name": "FENGYUN 1C DEB", "group": "fengyun-1c-debris", "lat": -8.1644509825855, "lon": 43.71294221437272, "alt_km": 861.3731045269124, "timestamp": "2025-12-09T04:51:47.771721+00:00", "meta": {"OBJECT_NAME": "FENGYUN 1C DEB", "OBJECT_ID": "1999-025ATM", "EPOCH": "2025-12-08T17:36:16.884000", "MEAN_MOTION": 14.15170119, "ECCENTRICITY": 0.0052789, "INCLINATION": 98.8551, "RA_OF_ASC_NODE": 41.9658, "ARG_OF_PERICENTER": 107.8654, "MEAN_ANOMALY": 15.9497, "EPHEMERIS_TYPE": 0, "CLASSIFICATION_TYPE": "U", "NORAD_CAT_ID": 30751, "ELEMENT_SET_NO": 999, "REV_AT_EPOCH": 96219, "BSTAR": 0.0021451, "MEAN_MOTION_DOT": 4.18e-05, "MEAN_MOTION_DDOT": 0}, "tle": {"line1": "1 30751U 99025ATM 25342.73352875  .00004180  00000+0  21451-2 0  9994", "line2": "2 30751  98.8551  41.9658 0052789 107.8654  15.9497 14.15170119962191"}}, "geometry": {"type": "Point", "coordinates": [43.71294221437272, -8.1644509825855]}}, {"type": "Feature", "properties": {"norad_id": 30753, "name": "FENGYUN 1C DEB", "group": "fengyun-1c-debris", "lat": -5.995758574689138, "lon": -159.07953623787216, "alt_km": 894.1639698805575, "timestamp": "2025-12-09T04:51:47.771754+00:00", "meta": {"OBJECT_NAME": "FENGYUN 1C DEB", "OBJECT_ID": "1999-025ATP", "EPOCH": "2025-12-08T19:29:11.452704", "MEAN_MOTION": 14.12624892, "ECCENTRICITY": 0.0055493, "INCLINATION": 98.8072, "RA_OF_ASC_NODE": 21.4694, "ARG_OF_PERICENTER": 6.497, "MEAN_ANOMALY": 353.6909, "EPHEMERIS_TYPE": 0, "CLASSIFICATION_TYPE": "U", "NORAD_CAT_ID": 30753, "ELEMENT_SET_NO": 999, "REV_AT_EPOCH": 96296, "BSTAR": 0.0015175, "MEAN_MOTION_DOT": 2.808e-05, "MEAN_MOTION_DDOT": 0}, "tle": {"line1": "1 30753U 99025ATP 25342.81193811  .00002808  00000+0  15175-2 0  9999", "line2": "2 30753  98.8072  21.4694 0055493   6.4970 353.6909 14.12624892962968"}}, "geometry": {"type": "Point", "coordinates": [-159.07953623787216, -5.995758574689138]}}, {"type": "Feature", "properties": {"norad_id": 30755, "name": "FENGYUN 1C DEB", "group": "fengyun-1c-debris", "lat": -73.77563335637177, "lon": 127.92272757478779, "alt_km": 651.1219421658152, "timestamp": "2025-12-09T04:51:47.771765+00:00", "meta": {"OBJECT_NAME": "FENGYUN 1C DEB", "OBJECT_ID": "1999-025ATR", "EPOCH": "2025-12-08T18:31:56.485056", "MEAN_MOTION": 14.44921679, "ECCENTRICITY": 0.0150935, "INCLINATION": 98.2582, "RA_OF_ASC_NODE": 337.445, "ARG_OF_PERICENTER": 281.2769, "MEAN_ANOMALY": 257.5779, "EPHEMERIS_TYPE": 0, "CLASSIFICATION_TYPE": "U", "NORAD_CAT_ID": 30755, "ELEMENT_SET_NO": 999, "REV_AT_EPOCH": 98387, "BSTAR": 0.0012122, "MEAN_MOTION_DOT": 4.809e-05, "MEAN_MOTION_DDOT": 0}, "tle": {"line1": "1 30755U 99025ATR 25342.77218154  .00004809  00000+0  12122-2 0  9996", "line2": "2 30755  98.2582 337.4450 0150935 281.2769 257.5779 14.44921679983874"}}, "geometry": {"type": "Point", "coordinates": [127.92272757478779, -73.77563335637177]}}, {"type": "Feature", "properties": {"norad_id": 30756, "name": "FENGYUN 1C DEB", "group": "fengyun-1c-debris", "lat": -26.88684322449637, "lon": -134.04187134757302, "alt_km": 861.8231669891447, "timestamp": "2025-12-09T04:51:47.771775+00:00", "meta": {"OBJECT_NAME": "FENGYUN 1C DEB", "OBJECT_ID": "1999-025ATS", "EPOCH": "2025-12-07T02:55:05.602368", "MEAN_MOTION": 14.18229314, "ECCENTRICITY": 0.00709996, "INCLINATION": 98.9915, "RA_OF_ASC_NODE": 48.4552, "ARG_OF_PERICENTER": 332.4992, "MEAN_ANOMALY": 56.1761, "EPHEMERIS_TYPE": 0, "CLASSIFICATION_TYPE": "U", "NORAD_CAT_ID": 30756, "ELEMENT_SET_NO": 999, "REV_AT_EPOCH": 96325, "BSTAR": 0.0022218419, "MEAN_MOTION_DOT": 4.641e-05, "MEAN_MOTION_DDOT": 0}, "tle": {"line1": "1 30756U 99025ATS 25341.12159262  .00004641  00000+0  22218-2 0  9990", "line2": "2 30756  98.9915  48.4552 0070999 332.4992  56.1761 14.18229314963254"}}, "geometry": {"type": "Point", "coordinates": [-134.04187134757302, -26.88684322449637]}}]}